ONEWEB-0597             
1 54663U 22166X   26204.31915500 -.00000047  00000+0 -14431-3 0  9997
2 54663  87.9229 236.7954 0001928  95.1597 264.9757 13.21824035176312
ONEWEB-0600             
1 54664U 22166Y   26204.37635395  .00000008  00000+0 -11989-4 0  9997
2 54664  87.9226 236.7753 0001987 100.4231 259.7127 13.21826706176294
ONEWEB-0601             
1 54665U 22166Z   26204.14084852  .00000047  00000+0  81735-4 0  9997
2 54665  87.9227 236.8381 0001777  95.8846 264.2491 13.21825265176452
ONEWEB-0602             
1 54666U 22166AA  26204.10636293  .00000103  00000+0  21860-3 0  9991
2 54666  87.9226 236.8507 0002004 101.6032 258.5328 13.21824497176292
ONEWEB-0603             
1 54667U 22166AB  26204.11224762  .00000013  00000+0 -60428-6 0  9994
2 54667  87.9234 236.8098 0001972  95.7695 264.3664 13.21823905176222
ONEWEB-0604             
1 54668U 22166AC  26204.17616828 -.00000061  00000+0 -17822-3 0  9990
2 54668  87.9236 236.8135 0002113  96.1523 263.9851 13.21824083176197
ONEWEB-0605             
1 54669U 22166AD  26204.32083307 -.00000024  00000+0 -89684-4 0  9993
2 54669  87.9230 236.7951 0001697  79.4591 280.6734 13.21823766176285
ONEWEB-0606             
1 54670U 22166AE  26204.11560865  .00000040  00000+0  65696-4 0  9994
2 54670  87.9226 236.8479 0002195  97.0191 263.1193 13.21825377176313
ONEWEB-0607             
1 54671U 22166AF  26204.38476205  .00000043  00000+0  71699-4 0  9991
2 54671  87.9233 236.7679 0001915  98.1031 262.0320 13.21826441176321
ONEWEB-0608             
1 54672U 22166AG  26204.08869383 -.00000011  00000+0 -59236-4 0  9992
2 54672  87.9241 236.8249 0001526  88.6538 271.4771 13.21824172176298
ONEWEB-0610             
1 54673U 22166AH  26204.37130567  .00000034  00000+0  49661-4 0  9994
2 54673  87.9226 236.7788 0001444  99.5222 260.6076 13.21826195176238
ONEWEB-0611             
1 54674U 22166AJ  26204.13746661  .00000117  00000+0  25134-3 0  9997
2 54674  87.9225 236.8212 0002202  95.2962 264.8424 13.21824395176196
ONEWEB-0612             
1 54675U 22166AK  26204.37802219 -.00000077  00000+0 -21725-3 0  9995
2 54675  87.9238 236.7728 0001867  94.5704 265.5643 13.21826370176213
ONEWEB-0615             
1 54676U 22166AL  26204.35784171  .00000044  00000+0  76183-4 0  9991
2 54676  87.9227 236.7882 0002292  98.7355 261.4039 13.21823689176229
ONEWEB-0655             
1 54677U 22166AM  26204.48568754  .00000007  00000+0 -14715-4 0  9996
2 54677  87.9227 236.7633 0001967 100.6192 259.5164 13.21823922176232
ONEWEB-0659             
1 54678U 22166AN  26204.12402791  .00000036  00000+0  55114-4 0  9995
2 54678  87.9228 236.8354 0002015  91.6254 268.5111 13.21824613176272
ONEWEB-0685             
1 54679U 22166AP  26204.58334491  .00040344  00000+0  95682-1 0  9994
2 54679  87.9226 236.7335 0003217  81.1908 313.8001 13.22896292  5247
ONEWEB-0712             
1 54680U 22166AQ  26204.31055109 -.00000246  00000+0 -67703-3 0  9997
2 54680  87.9079 221.5991 0001974 106.0912 254.0436 13.16594040176814
ONEWEB-0714             
1 54681U 22166AR  26204.12907862  .00000101  00000+0  21301-3 0  9991
2 54681  87.9226 236.8239 0002135 103.0476 257.0897 13.21826011176282
ONEWEB-0532             
1 55140U 23004A   26204.40593310  .00000038  00000+0  65143-4 0  9996
2 55140  87.9157 358.6599 0001806  85.7276 274.4062 13.17648871172358
ONEWEB-0533             
1 55141U 23004B   26204.36511694  .00000310  00000+0  82697-3 0  9992
2 55141  87.8976 343.4783 0001634  98.8169 261.3144 13.12443746172804
ONEWEB-0541             
1 55142U 23004C   26204.42326344 -.00000494  00000+0 -14295-2 0  9999
2 55142  87.8898  13.8452 0001938  88.5996 271.5354 13.11417079170690
ONEWEB-0543             
1 55143U 23004D   26204.58458466  .00000051  00000+0  96743-4 0  9995
2 55143  87.9197 328.2314 0001994 105.7212 254.4141 13.18687691174491
ONEWEB-0544             
1 55144U 23004E   26204.57784485  .00000000  00000+0 -32211-4 0  9993
2 55144  87.9200 328.2324 0002097 100.9463 259.1906 13.18685230174496
ONEWEB-0560             
1 55145U 23004F   26204.34347707  .00000050  00000+0  94285-4 0  9994
2 55145  87.9196 328.2685 0002125 103.2491 256.8879 13.18685896174479
ONEWEB-0565             
1 55146U 23004G   26204.33673253  .00000059  00000+0  11589-3 0  9996
2 55146  87.9187 328.2940 0002205  90.3144 269.8241 13.18685486174465
ONEWEB-0567             
1 55147U 23004H   26204.32997970  .00000058  00000+0  11432-3 0  9997
2 55147  87.9195 328.2829 0002236  96.2621 263.8766 13.18684739174466
ONEWEB-0569             
1 55148U 23004J   26204.34484571 -.00000122  00000+0 -36792-3 0  9998
2 55148  87.8992 313.0284 0002793 105.5480 254.5957 13.13470889174927
ONEWEB-0570             
1 55149U 23004K   26204.32155384 -.00000009  00000+0 -56217-4 0  9993
2 55149  87.9195 328.2820 0001884  85.7791 274.3557 13.18684811174453
ONEWEB-0571             
1 55150U 23004L   26204.31481975  .00000058  00000+0  11429-3 0  9999
2 55150  87.9195 328.2827 0003116  92.4169 267.7320 13.18686106174460
