OBJECT_NAME,OBJECT_ID,EPOCH,MEAN_MOTION,ECCENTRICITY,INCLINATION,RA_OF_ASC_NODE,ARG_OF_PERICENTER,MEAN_ANOMALY,EPHEMERIS_TYPE,CLASSIFICATION_TYPE,NORAD_CAT_ID,ELEMENT_SET_NO,REV_AT_EPOCH,BSTAR,MEAN_MOTION_DOT,MEAN_MOTION_DDOT
ONEWEB-0597,2022-166X,2026-07-23T07:39:34.992000,13.21824035,.00019286,87.9229,236.7954,95.1597,264.9757,0,U,54663,999,17631,-.14430755E-3,-.47E-6,0
ONEWEB-0600,2022-166Y,2026-07-23T09:01:56.981280,13.21826706,.00019876,87.9226,236.7753,100.4231,259.7127,0,U,54664,999,17629,-.1198948E-4,.8E-7,0
ONEWEB-0601,2022-166Z,2026-07-23T03:22:49.312128,13.21825265,.00017777,87.9227,236.8381,95.8846,264.2491,0,U,54665,999,17645,.81734673E-4,.47E-6,0
ONEWEB-0602,2022-166AA,2026-07-23T02:33:09.757152,13.21824497,.00020042,87.9226,236.8507,101.6032,258.5328,0,U,54666,999,17629,.21860497E-3,.103E-5,0
ONEWEB-0603,2022-166AB,2026-07-23T02:41:38.194368,13.21823905,.00019729,87.9234,236.8098,95.7695,264.3664,0,U,54667,999,17622,-.604283E-6,.13E-6,0
ONEWEB-0604,2022-166AC,2026-07-23T04:13:40.939392,13.21824083,.00021135,87.9236,236.8135,96.1523,263.9851,0,U,54668,999,17619,-.17822001E-3,-.61E-6,0
ONEWEB-0605,2022-166AD,2026-07-23T07:41:59.977248,13.21823766,.0001697,87.9230,236.7951,79.4591,280.6734,0,U,54669,999,17628,-.89684224E-4,-.24E-6,0
ONEWEB-0606,2022-166AE,2026-07-23T02:46:28.587360,13.21825377,.00021952,87.9226,236.8479,97.0191,263.1193,0,U,54670,999,17631,.6569611E-4,.4E-6,0
ONEWEB-0607,2022-166AF,2026-07-23T09:14:03.441120,13.21826441,.00019155,87.9233,236.7679,98.1031,262.0320,0,U,54671,999,17632,.71698873E-4,.43E-6,0
ONEWEB-0608,2022-166AG,2026-07-23T02:07:43.146912,13.21824172,.00015269,87.9241,236.8249,88.6538,271.4771,0,U,54672,999,17629,-.59236274E-4,-.11E-6,0
ONEWEB-0610,2022-166AH,2026-07-23T08:54:40.809888,13.21826195,.00014441,87.9226,236.7788,99.5222,260.6076,0,U,54673,999,17623,.49661189E-4,.34E-6,0
ONEWEB-0611,2022-166AJ,2026-07-23T03:17:57.115104,13.21824395,.00022028,87.9225,236.8212,95.2962,264.8424,0,U,54674,999,17619,.25134023E-3,.117E-5,0
ONEWEB-0612,2022-166AK,2026-07-23T09:04:21.117216,13.21826370,.00018676,87.9238,236.7728,94.5704,265.5643,0,U,54675,999,17621,-.21725481E-3,-.77E-6,0
ONEWEB-0615,2022-166AL,2026-07-23T08:35:17.523744,13.21823689,.00022922,87.9227,236.7882,98.7355,261.4039,0,U,54676,999,17622,.76182639E-4,.44E-6,0
ONEWEB-0655,2022-166AM,2026-07-23T11:39:23.403456,13.21823922,.0001967,87.9227,236.7633,100.6192,259.5164,0,U,54677,999,17623,-.14715456E-4,.7E-7,0
ONEWEB-0659,2022-166AN,2026-07-23T02:58:36.011424,13.21824613,.00020152,87.9228,236.8354,91.6254,268.5111,0,U,54678,999,17627,.55114388E-4,.36E-6,0
ONEWEB-0685,2022-166AP,2026-07-23T14:00:01.000224,13.22896292,.00032173,87.9226,236.7335,81.1908,313.8001,0,U,54679,999,524,.9568204E-1,.40344E-3,0
ONEWEB-0712,2022-166AQ,2026-07-23T07:27:11.614176,13.16594040,.0001974,87.9079,221.5991,106.0912,254.0436,0,U,54680,999,17681,-.67702791E-3,-.246E-5,0
ONEWEB-0714,2022-166AR,2026-07-23T03:05:52.392768,13.21826011,.00021359,87.9226,236.8239,103.0476,257.0897,0,U,54681,999,17628,.21301055E-3,.101E-5,0
ONEWEB-0532,2023-004A,2026-07-23T09:44:32.619840,13.17648871,.00018064,87.9157,358.6599,85.7276,274.4062,0,U,55140,999,17235,.65142566E-4,.38E-6,0
ONEWEB-0533,2023-004B,2026-07-23T08:45:46.103616,13.12443746,.00016341,87.8976,343.4783,98.8169,261.3144,0,U,55141,999,17280,.82696542E-3,.31E-5,0
ONEWEB-0541,2023-004C,2026-07-23T10:09:29.961216,13.11417079,.0001938,87.8898,13.8452,88.5996,271.5354,0,U,55142,999,17069,-.14295461E-2,-.494E-5,0
ONEWEB-0543,2023-004D,2026-07-23T14:01:48.114624,13.18687691,.00019947,87.9197,328.2314,105.7212,254.4141,0,U,55143,999,17449,.96742539E-4,.51E-6,0
ONEWEB-0544,2023-004E,2026-07-23T13:52:05.795040,13.18685230,.00020971,87.9200,328.2324,100.9463,259.1906,0,U,55144,999,17449,-.3221106E-4,0,0
ONEWEB-0560,2023-004F,2026-07-23T08:14:36.418848,13.18685896,.00021255,87.9196,328.2685,103.2491,256.8879,0,U,55145,999,17447,.94284984E-4,.5E-6,0
ONEWEB-0565,2023-004G,2026-07-23T08:04:53.690592,13.18685486,.00022055,87.9187,328.2940,90.3144,269.8241,0,U,55146,999,17446,.11589172E-3,.59E-6,0
ONEWEB-0567,2023-004H,2026-07-23T07:55:10.246080,13.18684739,.00022365,87.9195,328.2829,96.2621,263.8766,0,U,55147,999,17446,.11431995E-3,.58E-6,0
ONEWEB-0569,2023-004J,2026-07-23T08:16:34.669344,13.13470889,.0002793,87.8992,313.0284,105.5480,254.5957,0,U,55148,999,17492,-.36792223E-3,-.122E-5,0
ONEWEB-0570,2023-004K,2026-07-23T07:43:02.251776,13.18684811,.00018845,87.9195,328.2820,85.7791,274.3557,0,U,55149,999,17445,-.56216559E-4,-.9E-7,0
ONEWEB-0571,2023-004L,2026-07-23T07:33:20.426400,13.18686106,.00031166,87.9195,328.2827,92.4169,267.7320,0,U,55150,999,17446,.11428932E-3,.58E-6,0
